NORAD_CAT_ID,OBJECT_NAME,OBJECT_TYPE,EPOCH,MEAN_MOTION,ECCENTRICITY,INCLINATION,RA_OF_ASC_NODE,ARG_OF_PERICENTER,MEAN_ANOMALY,BSTAR,MEAN_MOTION_DOT,MEAN_MOTION_DDOT,TLE_LINE0,TLE_LINE1,TLE_LINE2,SEMIMAJOR_AXIS,PERIOD,APOGEE,PERIGEE,DECAYED
50163.0,STARLINK-3306,PAYLOAD,2023-09-18 21:40:18,15.08842888,0.0001584,53.2197,331.8798,106.3006,253.8161,5.2782e-05,5.52e-06,0.0,0 STARLINK-3306,1 50163U 21125H   23261.90298707  .00000552  00000-0  52782-4 0  9992,2 50163  53.2197 331.8798 0001584 106.3006 253.8161 15.08842888 99968,6917.872,95.437,540.832,538.641,0.0
50163.0,STARLINK-3306,PAYLOAD,2023-09-19 10:23:22,15.08853454,0.000131,53.2181,329.501,86.9935,273.1207,0.00015648,2.204e-05,0.0,0 STARLINK-3306,1 50163U 21125H   23262.43289750  .00002204  00000-0  15648-3 0  9994,2 50163  53.2181 329.5010 0001310  86.9935 273.1207 15.08853454100042,6917.839,95.437,540.611,538.798,0.0
50163.0,STARLINK-3306,PAYLOAD,2023-09-20 03:52:37,15.08835755,0.0001815,53.2177,326.2302,86.9854,273.1345,-3.3654e-05,-8.24e-06,0.0,0 STARLINK-3306,1 50163U 21125H   23263.16154648 -.00000824  00000-0 -33654-4 0  9998,2 50163  53.2177 326.2302 0001815  86.9854 273.1345 15.08835755100154,6917.893,95.438,541.014,538.503,0.0
50163.0,STARLINK-3306,PAYLOAD,2023-09-20 11:49:33,15.08826709,0.0001199,53.2174,324.7414,99.5114,260.6014,-0.00018839,-3.284e-05,0.0,0 STARLINK-3306,1 50163U 21125H   23263.49275015 -.00003284  00000-0 -18839-3 0  9996,2 50163  53.2174 324.7414 0001199  99.5114 260.6014 15.08826709100201,6917.921,95.438,540.615,538.957,0.0
50163.0,STARLINK-3306,PAYLOAD,2023-09-21 10:04:57,15.08843483,0.0001537,53.2171,320.5784,68.8332,291.2824,0.0004719,7.231e-05,0.0,0 STARLINK-3306,1 50163U 21125H   23264.42011503  .00007231  00000-0  47190-3 0  9996,2 50163  53.2171 320.5784 0001537  68.8332 291.2824 15.08843483100341,6917.87,95.437,540.798,538.671,0.0
50163.0,STARLINK-3306,PAYLOAD,2023-09-21 13:15:44,15.08850595,0.0001619,53.2169,319.984,62.69,297.4257,0.0010322,0.00016182,0.0,0 STARLINK-3306,1 50163U 21125H   23264.55259691  .00016182  00000-0  10322-2 0  9993,2 50163  53.2169 319.9840 0001619  62.6900 297.4257 15.08850595100842,6917.848,95.437,540.833,538.593,0.0
50163.0,STARLINK-3306,PAYLOAD,2023-09-22 03:34:12,15.08845712,0.0001328,53.2172,317.3056,90.7876,269.3268,0.00015941,2.25e-05,0.0,0 STARLINK-3306,1 50163U 21125H   23265.14875496  .00002250  00000-0  15941-3 0  9990,2 50163  53.2172 317.3056 0001328  90.7876 269.3268 15.08845712100450,6917.863,95.437,540.647,538.809,0.0
50163.0,STARLINK-3306,PAYLOAD,2023-09-22 09:55:45,15.08847728,0.0001886,53.2172,316.1199,62.9771,297.1413,0.00040049,6.093e-05,0.0,0 STARLINK-3306,1 50163U 21125H   23265.41371690  .00006093  00000-0  40049-3 0  9993,2 50163  53.2172 316.1199 0001886  62.9771 297.1413 15.08847728100976,6917.857,95.437,541.026,538.417,0.0
50163.0,STARLINK-3306,PAYLOAD,2023-09-22 21:03:26,15.08852078,0.0001654,53.2172,314.0388,62.9135,297.2026,0.00037277,5.652e-05,0.0,0 STARLINK-3306,1 50163U 21125H   23265.87739315  .00005652  00000-0  37277-3 0  9994,2 50163  53.2172 314.0388 0001654  62.9135 297.2026 15.08852078101044,6917.843,95.437,540.853,538.564,0.0
50163.0,STARLINK-3306,PAYLOAD,2023-09-23 09:46:31,15.08848775,0.0001769,53.2181,311.6592,72.6872,287.4314,9.2079e-05,1.178e-05,0.0,0 STARLINK-3306,1 50163U 21125H   23266.40731245  .00001178  00000-0  92079-4 0  9999,2 50163  53.2181 311.6592 0001769  72.6872 287.4314 15.08848775100642,6917.854,95.437,540.942,538.495,0.0
50163.0,STARLINK-3306,PAYLOAD,2023-09-24 03:15:46,15.08840739,0.0001723,53.2174,308.3884,80.0414,280.0773,3.1235e-05,2.09e-06,0.0,0 STARLINK-3306,1 50163U 21125H   23267.13595512  .00000209  00000-0  31235-4 0  9996,2 50163  53.2174 308.3884 0001723  80.0414 280.0773 15.08840739100758,6917.878,95.438,540.935,538.551,0.0
50163.0,STARLINK-3306,PAYLOAD,2023-09-24 09:37:18,15.0884464,0.0001622,53.2177,307.1972,90.5682,269.5496,3.4553e-05,2.62e-06,0.0,0 STARLINK-3306,1 50163U 21125H   23267.40091279  .00000262  00000-0  34553-4 0  9992,2 50163  53.2177 307.1972 0001622  90.5682 269.5496 15.08844640101274,6917.866,95.437,540.853,538.609,0.0
50163.0,STARLINK-3306,PAYLOAD,2023-09-25 09:28:05,15.08844657,0.0001566,53.2171,302.7384,88.8307,271.2864,0.00012976,1.778e-05,0.0,0 STARLINK-3306,1 50163U 21125H   23268.39451123  .00001778  00000-0  12976-3 0  9996,2 50163  53.2171 302.7384 0001566  88.8307 271.2864 15.08844657100947,6917.866,95.437,540.814,538.648,0.0
50163.0,STARLINK-3306,PAYLOAD,2023-09-25 19:00:24,15.08844803,0.0001538,53.2167,300.9541,91.0045,269.1123,0.00014443,2.012e-05,0.0,0 STARLINK-3306,1 50163U 21125H   23268.79195123  .00002012  00000-0  14443-3 0  9998,2 50163  53.2167 300.9541 0001538  91.0045 269.1123 15.08844803101488,6917.866,95.437,540.795,538.667,0.0
50163.0,STARLINK-3306,PAYLOAD,2023-09-26 07:43:30,15.08838739,0.0001585,53.2184,298.5757,91.1042,269.0131,4.2407e-05,3.87e-06,0.0,0 STARLINK-3306,1 50163U 21125H   23269.32187720  .00000387  00000-0  42407-4 0  9997,2 50163  53.2184 298.5757 0001585  91.1042 269.0131 15.08838739101083,6917.884,95.438,540.846,538.653,0.0
50163.0,STARLINK-3306,PAYLOAD,2023-09-27 09:09:40,15.08833857,0.0001866,53.218,293.8169,99.2919,260.8285,9.2188e-05,1.179e-05,0.0,0 STARLINK-3306,1 50163U 21125H   23270.38172064  .00001179  00000-0  92188-4 0  9991,2 50163  53.2180 293.8169 0001866  99.2919 260.8285 15.08833857101241,6917.899,95.438,541.055,538.473,0.0
50163.0,STARLINK-3306,PAYLOAD,2023-09-27 10:45:03,15.08832356,0.0002002,53.218,293.5195,100.7115,259.4103,0.00013409,1.846e-05,0.0,0 STARLINK-3306,1 50163U 21125H   23270.44796078  .00001846  00000-0  13409-3 0  9994,2 50163  53.2180 293.5195 0002002 100.7115 259.4103 15.08832356101736,6917.904,95.438,541.154,538.384,0.0
50163.0,STARLINK-3306,PAYLOAD,2023-09-28 10:35:51,15.08833641,0.0001678,53.2174,289.058,93.4161,266.7023,3.1187e-05,2.08e-06,0.0,0 STARLINK-3306,1 50163U 21125H   23271.44156561  .00000208  00000-0  31187-4 0  9997,2 50163  53.2174 289.0580 0001678  93.4161 266.7023 15.08833641101408,6917.9,95.438,540.926,538.604,0.0
50163.0,STARLINK-3306,PAYLOAD,2023-09-29 07:15:51,15.08844086,0.0001592,53.217,285.1916,95.9195,264.1979,0.00010108,1.321e-05,0.0,0 STARLINK-3306,1 50163U 21125H   23272.30267827  .00001321  00000-0  10108-3 0  9997,2 50163  53.2170 285.1916 0001592  95.9195 264.1979 15.08844086101534,6917.868,95.437,540.834,538.632,0.0
50163.0,STARLINK-3306,PAYLOAD,2023-09-30 05:31:15,15.08847235,0.0001452,53.2163,281.0292,87.476,272.6399,0.00011566,1.554e-05,0.0,0 STARLINK-3306,1 50163U 21125H   23273.23003477  .00001554  00000-0  11566-3 0  9996,2 50163  53.2163 281.0292 0001452  87.4760 272.6399 15.08847235102155,6917.858,95.437,540.728,538.719,0.0
50163.0,STARLINK-3306,PAYLOAD,2023-09-30 10:17:24,15.08850461,0.0001466,53.2158,280.1359,91.3405,268.7755,0.00014748,2.061e-05,0.0,0 STARLINK-3306,1 50163U 21125H   23273.42875076  .00002061  00000-0  14748-3 0  9998,2 50163  53.2158 280.1359 0001466  91.3405 268.7755 15.08850461101705,6917.848,95.437,540.728,538.699,0.0
50163.0,STARLINK-3306,PAYLOAD,2023-10-01 03:46:39,15.08837563,0.0001446,53.216,276.8656,94.3092,265.8065,-3.7941e-05,-8.92e-06,0.0,0 STARLINK-3306,1 50163U 21125H   23274.15740454 -.00000892  00000-0 -37941-4 0  9993,2 50163  53.2160 276.8656 0001446  94.3092 265.8065 15.08837563101815,6917.888,95.438,540.753,538.753,0.0
50163.0,STARLINK-3306,PAYLOAD,2023-10-01 06:57:25,15.08840283,0.0001487,53.2158,276.2707,99.0148,261.1012,-1.3259e-05,-4.99e-06,0.0,0 STARLINK-3306,1 50163U 21125H   23274.28988194 -.00000499  00000-0 -13259-4 0  9991,2 50163  53.2158 276.2707 0001487  99.0148 261.1012 15.08840283102312,6917.88,95.438,540.773,538.716,0.0
50163.0,STARLINK-3306,PAYLOAD,2023-10-02 06:48:13,15.08836818,0.0001472,53.2166,271.8122,98.2639,261.852,-3.3076e-05,-8.14e-06,0.0,0 STARLINK-3306,1 50163U 21125H   23275.28348707 -.00000814  00000-0 -33076-4 0  9992,2 50163  53.2166 271.8122 0001472  98.2639 261.8520 15.08836818101985,6917.89,95.438,540.773,538.737,0.0
50163.0,STARLINK-3306,PAYLOAD,2023-10-03 06:38:59,15.08840932,0.0001507,53.217,267.3515,102.4664,257.6497,0.0001799,2.576e-05,0.0,0 STARLINK-3306,1 50163U 21125H   23276.27708327  .00002576  00000-0  17990-3 0  9991,2 50163  53.2170 267.3515 0001507 102.4664 257.6497 15.08840932102137,6917.878,95.437,540.785,538.7,0.0
50163.0,STARLINK-3306,PAYLOAD,2023-10-03 16:11:18,15.08842748,0.0001463,53.2172,265.5676,101.2146,258.9011,6.5055e-05,7.48e-06,0.0,0 STARLINK-3306,1 50163U 21125H   23276.67452524  .00000748  00000-0  65055-4 0  9995,2 50163  53.2172 265.5676 0001463 101.2146 258.9011 15.08842748102672,6917.872,95.437,540.749,538.725,0.0
50163.0,STARLINK-3306,PAYLOAD,2023-10-04 00:08:15,15.08834063,0.0001776,53.2182,264.08,97.3361,262.7833,8.5087e-05,1.066e-05,0.0,0 STARLINK-3306,1 50163U 21125H   23277.00573418  .00001066  00000-0  85087-4 0  9990,2 50163  53.2182 264.0800 0001776  97.3361 262.7833 15.08834063102246,6917.899,95.438,540.992,538.535,0.0
50163.0,STARLINK-3306,PAYLOAD,2023-10-04 22:23:39,15.08837119,0.0001691,53.2192,259.9159,97.507,262.6114,0.00018961,2.731e-05,0.0,0 STARLINK-3306,1 50163U 21125H   23277.93309263  .00002731  00000-0  18961-3 0  9993,2 50163  53.2192 259.9159 0001691  97.5070 262.6114 15.08837119102866,6917.889,95.438,540.924,538.584,0.0
50163.0,STARLINK-3306,PAYLOAD,2023-10-05 04:45:11,15.08847091,0.0001882,53.218,258.7272,96.583,263.5377,0.00011626,1.563e-05,0.0,0 STARLINK-3306,1 50163U 21125H   23278.19804698  .00001563  00000-0  11626-3 0  9997,2 50163  53.2180 258.7272 0001882  96.5830 263.5377 15.08847091102424,6917.859,95.437,541.026,538.422,0.0
50163.0,STARLINK-3306,PAYLOAD,2023-10-05 07:55:57,15.08853138,0.0001787,53.2173,258.1319,94.4843,265.6353,0.0002211,3.234e-05,0.0,0 STARLINK-3306,1 50163U 21125H   23278.33052353  .00003234  00000-0  22110-3 0  9993,2 50163  53.2173 258.1319 0001787  94.4843 265.6353 15.08853138102928,6917.84,95.437,540.941,538.469,0.0
